CUBEBUG-2 (LO-74)       
1 39440U 13066AA  26060.38655110  .00006918  00000+0  65121-3 0  9990
2 39440  97.8797   9.0474 0059601  26.2789 334.1433 14.92825851660905
FUNCUBE-1 (AO-73)       
1 39444U 13066AE  26060.47841359  .00009637  00000+0  62560-3 0  9991
2 39444  97.8159  29.8789 0036446 207.4761 152.4541 15.07720939663424
UWE-3                   
1 39446U 13066AG  26060.36964482  .00006790  00000+0  59529-3 0  9992
2 39446  97.8588  15.8704 0048838 321.2040  38.5678 14.96062052661455
UNISAT-6                
1 40012U 14033C   26060.40000865  .00003853  00000+0  42199-3 0  9991
2 40012  97.7704 215.1486 0046548  64.6563 295.9463 14.87562253630131
DUCHIFAT-1              
1 40021U 14033M   26060.04463791  .00057128  00000+0  10650-2 0  9992
2 40021  98.0658 105.4611 0006820 108.7598 251.4391 15.48607986638935
QB50P1                  
1 40025U 14033R   26059.99975929  .00010723  00000+0  55682-3 0  9994
2 40025  98.1003  63.6971 0007358 227.8584 132.2023 15.16293301636622
LILACSAT-2              
1 40908U 15049K   26060.56311381  .00020166  00000+0  39146-3 0  9992
2 40908  97.4822  93.5069 0005616 286.3714  73.6918 15.47670832579082
FOX-1A (AO-85)          
1 40967U 15058D   26059.93594435  .00004045  00000+0  36968-3 0  9996
2 40967  64.7738 255.2193 0129360  99.4296 262.1465 14.90263896 97437
CAS-2T & KS-1Q          
1 41847U 16066G   26060.18677897  .00001654  00000+0  23904-3 0  9996
2 41847  98.3903 137.1302 0343846  97.1927 266.8483 14.44437526489208
RADFXSAT (FOX-1B)       
1 43017U 17073E   26060.44859478  .00012911  00000+0  58580-3 0  9998
2 43017  97.4879 289.9190 0155811 340.6381  18.8969 15.10655514449118
DIWATA-2B               
1 43678U 18084H   26060.51682542  .00001193  00000+0  10134-3 0  9991
2 43678  98.1038 252.2177 0010978 152.5808 207.5996 14.99907438400072
ES'HAIL 2               
1 43700U 18090A   26060.30960560  .00000126  00000+0  00000+0 0  9992
2 43700   0.0143 111.6653 0002672 262.8086 281.8657  1.00273334 26598
FOX-1CLIFF (AO-95)      
1 43770U 18099N   26060.10911046  .00013954  00000+0  57549-3 0  9998
2 43770  97.4540 120.8803 0009112  18.2881 341.8682 15.24139789396745
ITASAT                  
1 43786U 18099AE  26060.13696356  .00008248  00000+0  41368-3 0  9994
2 43786  97.4192 113.8392 0013103  16.9890 343.1779 15.17509289396515
JY1SAT (JO-97)          
1 43803U 18099AX  26060.11932749  .00019646  00000+0  67968-3 0  9999
2 43803  97.4281 122.7977 0004658 296.8245  63.2519 15.29916332397089
UWE-4                   
1 43880U 18111E   26060.29110592  .00035514  00000+0  90840-3 0  9999
2 43880  97.5857 344.2783 0009222  10.4816 349.6619 15.39307955394148
TIANYAN 01              
1 44881U 19093C   26060.47250159  .00000839  00000+0  10116-3 0  9995
2 44881  97.7633 135.3052 0015037  82.1176 278.1746 14.86317311335418
RS-44 & BREEZE-KM R/B   
1 44909U 19096E   26060.42942475  .00000029  00000+0  69635-4 0  9995
2 44909  82.5185  51.3048 0218255  36.5882 324.9903 12.79747340288566
SALSAT                  
1 46495U 20068K   26060.48768708  .00011000  00000+0  40526-3 0  9997
2 46495  97.8843  57.1429 0008976 330.8256  29.2479 15.27983521298908
XW-3 (CAS-9)            
1 50466U 21131B   26060.52018718  .00000682  00000+0  22486-3 0  9995
2 50466  98.4969 153.5227 0005159  69.5869 290.5873 14.41238310219605
GREENCUBE (IO-117)      
1 53109U 22080E   26060.17261777 -.00000003  00000+0  00000+0 0  9994
2 53109  70.1622 335.8145 0009069 313.5735  46.4172  6.42583117 85125
UMKA 1 (RS40S)          
1 57172U 23091G   26060.47232817  .00007750  00000+0  36780-3 0  9990
2 57172  97.5202 119.6123 0014427 131.7722 228.4748 15.19449526147646
CUBESX-HSE 3 (RS42S)    
1 57178U 23091N   26060.51124100  .00017570  00000+0  63769-3 0  9994
2 57178  97.5232 124.9000 0012810 112.9729 247.2863 15.28305949147962
MONITOR-3 (RS58S)       
1 57180U 23091Q   26060.51401817  .00014368  00000+0  56828-3 0  9990
2 57180  97.5227 123.2833 0013672 117.6920 242.5707 15.25491084147864
MONITOR-4 (RS57S)       
1 57182U 23091S   26060.49960075  .00014106  00000+0  55655-3 0  9992
2 57182  97.5221 123.2330 0013720 118.1597 242.1029 15.25576440147865
MONITOR-2 (RS39S)       
1 57184U 23091U   26060.49852432  .00007141  00000+0  35585-3 0  9992
2 57184  97.5226 119.4855 0012818 124.0021 236.2432 15.17794128147617
SVYATOBOR 1 (RS60S)     
1 57187U 23091X   26060.49657588  .00012446  00000+0  50643-3 0  9996
2 57187  97.5234 123.8044 0011283 110.1799 250.0653 15.24600390147895
VIZARD-METEO (RS38S)    
1 57189U 23091Z   26060.53649914  .00021456  00000+0  68665-3 0  9991
2 57189  97.5222 128.0935 0009061  97.0765 263.1508 15.32388349148180
NANOZOND 1 (RS49S)      
1 57190U 23091AA  26060.34677334  .00178182  00000+0  13979-2 0  9995
2 57190  97.5106 139.9456 0000822  92.2846 267.8511 15.71002638148963
POLYTECH-UNIVERSE 3 (R*)
1 57191U 23091AB  26060.53951036  .00006686  00000+0  33117-3 0  9997
2 57191  97.5200 119.0337 0016987 140.2003 220.0480 15.17975549147611
